ONEWEB-0027             
1 45432U 20020J   23333.10035465  .00000050  00000+0  94897-4 0  9995
2 45432  87.9218 190.9516 0001725  89.2983 270.8346 13.17650446183740
ONEWEB-0064             
1 45433U 20020K   23332.67798226 -.00000371  00000+0 -10839-2 0  9998
2 45433  87.8989 206.1638 0001599  91.7084 268.4227 13.11415794180599
ONEWEB-0018             
1 45434U 20020L   23333.16824580 -.00000754  00000+0 -21623-2 0  9995
2 45434  87.8998 206.0594 0001522  80.0075 280.1224 13.11424460180618
ONEWEB-0083             
1 45435U 20020M   23332.69909818  .00000066  00000+0  14914-3 0  9991
2 45435  87.8989 206.1337 0001612  81.2569 278.8741 13.11418917180580
ONEWEB-0095             
1 45436U 20020N   23332.69110674 -.00000312  00000+0 -91486-3 0  9991
2 45436  87.9006 206.1744 0001908  77.1827 282.9514 13.11415800180585
ONEWEB-0092             
1 45437U 20020P   23332.73481720  .00000469  00000+0  12882-2 0  9993
2 45437  87.8994 206.1434 0001934  76.2472 283.8872 13.11413954180701
ONEWEB-0085             
1 45438U 20020Q   23333.15037172 -.00000513  00000+0 -14844-2 0  9991
2 45438  87.8988 206.0676 0001293  82.6074 277.5201 13.11417893180655
ONEWEB-0096             
1 45439U 20020R   23332.70073411  .00000100  00000+0  24521-3 0  9992
2 45439  87.8987 206.1294 0001313  71.7246 288.4025 13.11418747180570
